*******************************************************************************
Ephemeris / WWW_USER Mon Jul 15 19:30:38 2024 Pasadena, USA      / Horizons    
*******************************************************************************
Target body name: Hale-Bopp (C/1995 O1)           {source: JPL#226}
Center body name: Earth (399)                     {source: DE441}
Center-site name: Gemini South Obs., Cerro Pachon
*******************************************************************************
Start time      : A.D. 2018-Nov-27 23:36:00.0000 UT      
Stop  time      : A.D. 2018-Nov-28 09:25:00.0000 UT      
Step-size       : 1 minutes
*******************************************************************************
Target pole/equ : undefined
Target radii    : 30. km                                                       
Center geodetic : 289.2634, -30.2406227, 2.71233  {E-lon(deg),Lat(deg),Alt(km)}
Center cylindric: 289.2634,5517.21435,-3194.81213 {E-lon(deg),Dxy(km),Dz(km)}
Center pole/equ : ITRF93                          {East-longitude positive}
Center radii    : 6378.137, 6378.137, 6356.752 km {Equator_a, b, pole_c}       
Target primary  : Sun
Vis. interferer : MOON (R_eq= 1737.400) km        {source: DE441}
Rel. light bend : Sun                             {source: DE441}
Rel. lght bnd GM: 1.3271E+11 km^3/s^2                                          
Small-body perts: Yes                             {source: SB441-N16}
Atmos refraction: NO (AIRLESS)
RA format       : HMS
Time format     : CAL 
Calendar mode   : Mixed Julian/Gregorian
RTS-only print  : NO       
EOP file        : eop.240715.p241008                                           
EOP coverage    : DATA-BASED 1962-JAN-20 TO 2024-JUL-15. PREDICTS-> 2024-OCT-07
Units conversion: 1 au= 149597870.700 km, c= 299792.458 km/s, 1 day= 86400.0 s 
Table cut-offs 1: Elevation (-90.0deg=NO ),Airmass (>38.000=NO), Daylight (YES)
Table cut-offs 2: Solar elongation (  0.0,180.0=NO ),Local Hour Angle( 0.0=NO )
Table cut-offs 3: RA/DEC angular rate (     0.0=NO )                           
*******************************************************************************
Initial IAU76/J2000 heliocentric ecliptic osculating elements (au, days, deg.):
  EPOCH=  2459837.5 ! 2022-Sep-15.0000000 (TDB)    RMSW= n.a.                  
   EC= .9949810027633206   QR= .890537663547794    TP= 2450537.1349071441      
   OM= 282.7334213961641   W= 130.4146670659176    IN= 89.28759424740302       
  Equivalent ICRF heliocentric cartesian coordinates (au, au/d):
   X= 3.907631452214869E+00  Y=-1.373895334060347E+00  Z=-4.624358508575312E+01
  VX= 3.778244409519935E-04 VY=-5.803173067116371E-04 VZ=-3.255716412104052E-03
Comet physical (GM= km^3/s^2; RAD= km):                                        
   GM= n.a.                RAD= 30.                                            
   M1=  4.8      M2=  n.a.     k1=  4.     k2= n.a.     PHCOF= n.a.            
*******************************************************************************
 Date__(UT)__HR:MN     R.A._________(ICRF)_________DEC
******************************************************
$$SOE
 2018-Nov-28 01:40     22 19 38.126048 -85 33 07.51049
 2018-Nov-28 01:41     22 19 38.127068 -85 33 07.45116
 2018-Nov-28 01:42     22 19 38.128092 -85 33 07.39184
 2018-Nov-28 01:43     22 19 38.129118 -85 33 07.33251
 2018-Nov-28 01:44     22 19 38.130147 -85 33 07.27318
 2018-Nov-28 01:45     22 19 38.131178 -85 33 07.21384
 2018-Nov-28 01:46     22 19 38.132212 -85 33 07.15450
 2018-Nov-28 01:47     22 19 38.133250 -85 33 07.09517
 2018-Nov-28 01:48     22 19 38.134289 -85 33 07.03582
 2018-Nov-28 01:49     22 19 38.135332 -85 33 06.97648
 2018-Nov-28 01:50     22 19 38.136378 -85 33 06.91714
 2018-Nov-28 01:51     22 19 38.137426 -85 33 06.85779
 2018-Nov-28 01:52     22 19 38.138477 -85 33 06.79844
 2018-Nov-28 01:53     22 19 38.139531 -85 33 06.73908
 2018-Nov-28 01:54     22 19 38.140587 -85 33 06.67973
 2018-Nov-28 01:55     22 19 38.141647 -85 33 06.62037
 2018-Nov-28 01:56     22 19 38.142709 -85 33 06.56101
 2018-Nov-28 01:57     22 19 38.143774 -85 33 06.50165
 2018-Nov-28 01:58     22 19 38.144842 -85 33 06.44229
 2018-Nov-28 01:59     22 19 38.145913 -85 33 06.38292
 2018-Nov-28 02:00     22 19 38.146987 -85 33 06.32355
 2018-Nov-28 02:01     22 19 38.148064 -85 33 06.26418
 2018-Nov-28 02:02     22 19 38.149143 -85 33 06.20481
 2018-Nov-28 02:03     22 19 38.150226 -85 33 06.14543
 2018-Nov-28 02:04     22 19 38.151311 -85 33 06.08606
 2018-Nov-28 02:05     22 19 38.152399 -85 33 06.02668
 2018-Nov-28 02:06     22 19 38.153490 -85 33 05.96730
 2018-Nov-28 02:07     22 19 38.154585 -85 33 05.90791
 2018-Nov-28 02:08     22 19 38.155682 -85 33 05.84853
 2018-Nov-28 02:09     22 19 38.156782 -85 33 05.78914
 2018-Nov-28 02:10     22 19 38.157885 -85 33 05.72975
 2018-Nov-28 02:11     22 19 38.158990 -85 33 05.67036
 2018-Nov-28 02:12     22 19 38.160099 -85 33 05.61096
 2018-Nov-28 02:13     22 19 38.161211 -85 33 05.55157
 2018-Nov-28 02:14     22 19 38.162326 -85 33 05.49217
 2018-Nov-28 02:15     22 19 38.163444 -85 33 05.43277
 2018-Nov-28 02:16     22 19 38.164565 -85 33 05.37337
 2018-Nov-28 02:17     22 19 38.165688 -85 33 05.31396
 2018-Nov-28 02:18     22 19 38.166815 -85 33 05.25456
 2018-Nov-28 02:19     22 19 38.167945 -85 33 05.19515
 2018-Nov-28 02:20     22 19 38.169078 -85 33 05.13574
 2018-Nov-28 02:21     22 19 38.170214 -85 33 05.07633
 2018-Nov-28 02:22     22 19 38.171353 -85 33 05.01691
 2018-Nov-28 02:23     22 19 38.172495 -85 33 04.95750
 2018-Nov-28 02:24     22 19 38.173640 -85 33 04.89808
 2018-Nov-28 02:25     22 19 38.174788 -85 33 04.83866
 2018-Nov-28 02:26     22 19 38.175939 -85 33 04.77924
 2018-Nov-28 02:27     22 19 38.177093 -85 33 04.71982
 2018-Nov-28 02:28     22 19 38.178251 -85 33 04.66039
 2018-Nov-28 02:29     22 19 38.179411 -85 33 04.60096
 2018-Nov-28 02:30     22 19 38.180575 -85 33 04.54154
 2018-Nov-28 02:31     22 19 38.181741 -85 33 04.48210
 2018-Nov-28 02:32     22 19 38.182911 -85 33 04.42267
 2018-Nov-28 02:33     22 19 38.184084 -85 33 04.36324
 2018-Nov-28 02:34     22 19 38.185260 -85 33 04.30380
 2018-Nov-28 02:35     22 19 38.186439 -85 33 04.24436
 2018-Nov-28 02:36     22 19 38.187621 -85 33 04.18492
 2018-Nov-28 02:37     22 19 38.188807 -85 33 04.12548
 2018-Nov-28 02:38     22 19 38.189995 -85 33 04.06604
 2018-Nov-28 02:39     22 19 38.191187 -85 33 04.00659
 2018-Nov-28 02:40     22 19 38.192382 -85 33 03.94715
 2018-Nov-28 02:41     22 19 38.193580 -85 33 03.88770
 2018-Nov-28 02:42     22 19 38.194781 -85 33 03.82825
 2018-Nov-28 02:43     22 19 38.195986 -85 33 03.76880
 2018-Nov-28 02:44     22 19 38.197193 -85 33 03.70935
 2018-Nov-28 02:45     22 19 38.198404 -85 33 03.64989
 2018-Nov-28 02:46     22 19 38.199618 -85 33 03.59043
 2018-Nov-28 02:47     22 19 38.200835 -85 33 03.53098
 2018-Nov-28 02:48     22 19 38.202055 -85 33 03.47152
 2018-Nov-28 02:49     22 19 38.203279 -85 33 03.41205
 2018-Nov-28 02:50     22 19 38.204506 -85 33 03.35259
 2018-Nov-28 02:51     22 19 38.205736 -85 33 03.29313
 2018-Nov-28 02:52     22 19 38.206969 -85 33 03.23366
 2018-Nov-28 02:53     22 19 38.208206 -85 33 03.17419
 2018-Nov-28 02:54     22 19 38.209446 -85 33 03.11472
 2018-Nov-28 02:55     22 19 38.210689 -85 33 03.05525
 2018-Nov-28 02:56     22 19 38.211935 -85 33 02.99578
 2018-Nov-28 02:57     22 19 38.213185 -85 33 02.93631
 2018-Nov-28 02:58     22 19 38.214437 -85 33 02.87683
 2018-Nov-28 02:59     22 19 38.215693 -85 33 02.81736
 2018-Nov-28 03:00     22 19 38.216953 -85 33 02.75788
 2018-Nov-28 03:01     22 19 38.218216 -85 33 02.69840
 2018-Nov-28 03:02     22 19 38.219481 -85 33 02.63892
 2018-Nov-28 03:03     22 19 38.220751 -85 33 02.57944
 2018-Nov-28 03:04     22 19 38.222023 -85 33 02.51995
 2018-Nov-28 03:05     22 19 38.223299 -85 33 02.46047
 2018-Nov-28 03:06     22 19 38.224578 -85 33 02.40098
 2018-Nov-28 03:07     22 19 38.225861 -85 33 02.34150
 2018-Nov-28 03:08     22 19 38.227147 -85 33 02.28201
 2018-Nov-28 03:09     22 19 38.228436 -85 33 02.22252
 2018-Nov-28 03:10     22 19 38.229728 -85 33 02.16302
 2018-Nov-28 03:11     22 19 38.231024 -85 33 02.10353
 2018-Nov-28 03:12     22 19 38.232323 -85 33 02.04404
 2018-Nov-28 03:13     22 19 38.233625 -85 33 01.98454
 2018-Nov-28 03:14     22 19 38.234931 -85 33 01.92505
 2018-Nov-28 03:15     22 19 38.236240 -85 33 01.86555
 2018-Nov-28 03:16     22 19 38.237553 -85 33 01.80605
 2018-Nov-28 03:17     22 19 38.238869 -85 33 01.74655
 2018-Nov-28 03:18     22 19 38.240188 -85 33 01.68705
 2018-Nov-28 03:19     22 19 38.241511 -85 33 01.62755
 2018-Nov-28 03:20     22 19 38.242837 -85 33 01.56804
 2018-Nov-28 03:21     22 19 38.244166 -85 33 01.50854
 2018-Nov-28 03:22     22 19 38.245499 -85 33 01.44903
 2018-Nov-28 03:23     22 19 38.246835 -85 33 01.38952
 2018-Nov-28 03:24     22 19 38.248175 -85 33 01.33002
 2018-Nov-28 03:25     22 19 38.249517 -85 33 01.27051
 2018-Nov-28 03:26     22 19 38.250864 -85 33 01.21100
 2018-Nov-28 03:27     22 19 38.252214 -85 33 01.15149
 2018-Nov-28 03:28     22 19 38.253567 -85 33 01.09197
 2018-Nov-28 03:29     22 19 38.254923 -85 33 01.03246
 2018-Nov-28 03:30     22 19 38.256283 -85 33 00.97295
 2018-Nov-28 03:31     22 19 38.257647 -85 33 00.91343
 2018-Nov-28 03:32     22 19 38.259013 -85 33 00.85391
 2018-Nov-28 03:33     22 19 38.260384 -85 33 00.79440
 2018-Nov-28 03:34     22 19 38.261757 -85 33 00.73488
 2018-Nov-28 03:35     22 19 38.263134 -85 33 00.67536
 2018-Nov-28 03:36     22 19 38.264515 -85 33 00.61584
 2018-Nov-28 03:37     22 19 38.265899 -85 33 00.55632
 2018-Nov-28 03:38     22 19 38.267286 -85 33 00.49680
 2018-Nov-28 03:39     22 19 38.268677 -85 33 00.43727
 2018-Nov-28 03:40     22 19 38.270071 -85 33 00.37775
 2018-Nov-28 03:41     22 19 38.271469 -85 33 00.31822
 2018-Nov-28 03:42     22 19 38.272870 -85 33 00.25870
 2018-Nov-28 03:43     22 19 38.274275 -85 33 00.19917
